{
  "type": "FeatureCollection",
  "features": [
    {
      "type": "Feature",
      "properties": {
        "norad_id": 34761,
        "name": "COSMOS 2251 DEB",
        "group": "cosmos-2251-debris",
        "lat": 9.934128674565692,
        "lon": 15.81195314695984,
        "alt_km": 745.9819513318889,
        "timestamp": "2025-12-07T05:38:10.298694+00:00",
        "meta_object_name": "COSMOS 2251 DEB",
        "meta_object_id": "1993-036AAF",
        "meta_epoch": "2025-12-06T12:53:31.942464",
        "meta_mean_motion": 14.38017392,
        "meta_eccentricity": 0.00361626,
        "meta_inclination": 74.0294,
        "meta_ra_of_asc_node": 14.222,
        "meta_arg_of_pericenter": 50.2729,
        "meta_mean_anomaly": 310.1602,
        "meta_ephemeris_type": 0,
        "meta_classification_type": "U",
        "meta_norad_cat_id": 34761,
        "meta_element_set_no": 999,
        "meta_rev_at_epoch": 87560,
        "meta_bstar": 0.001046169,
        "meta_mean_motion_dot": 3.165e-05,
        "meta_mean_motion_ddot": 0,
        "tle_line1": "1 34761U 93036AAF 25340.53717526  .00003165  00000+0  10462-2 0  9991",
        "tle_line2": "2 34761  74.0294  14.2220 0036162  50.2729 310.1602 14.38017392875600"
      },
      "geometry": {
        "type": "Point",
        "coordinates": [
          15.81195314695984,
          9.934128674565692
        ]
      }
    },
    {
      "type": "Feature",
      "properties": {
        "norad_id": 34784,
        "name": "COSMOS 2251 DEB",
        "group": "cosmos-2251-debris",
        "lat": 26.903405866082014,
        "lon": 146.52597290678918,
        "alt_km": 654.4817887861545,
        "timestamp": "2025-12-07T05:38:10.298704+00:00",
        "meta_object_name": "COSMOS 2251 DEB",
        "meta_object_id": "1993-036AAM",
        "meta_epoch": "2025-12-06T05:56:01.298400",
        "meta_mean_motion": 14.60734634,
        "meta_eccentricity": 0.00496438,
        "meta_inclination": 74.007,
        "meta_ra_of_asc_node": 336.783,
        "meta_arg_of_pericenter": 148.0473,
        "meta_mean_anomaly": 212.3721,
        "meta_ephemeris_type": 0,
        "meta_classification_type": "U",
        "meta_norad_cat_id": 34784,
        "meta_element_set_no": 999,
        "meta_rev_at_epoch": 88440,
        "meta_bstar": 0.00087620671,
        "meta_mean_motion_dot": 4.32e-05,
        "meta_mean_motion_ddot": 0,
        "tle_line1": "1 34784U 93036AAM 25340.24723725  .00004320  00000+0  87621-3 0  9998",
        "tle_line2": "2 34784  74.0070 336.7830 0049643 148.0473 212.3721 14.60734634884409"
      },
      "geometry": {
        "type": "Point",
        "coordinates": [
          146.52597290678918,
          26.903405866082014
        ]
      }
    },
    {
      "type": "Feature",
      "properties": {
        "norad_id": 34790,
        "name": "COSMOS 2251 DEB",
        "group": "cosmos-2251-debris",
        "lat": -73.80624174146757,
        "lon": 173.73452718780618,
        "alt_km": 764.020289711324,
        "timestamp": "2025-12-07T05:38:10.298714+00:00",
        "meta_object_name": "COSMOS 2251 DEB",
        "meta_object_id": "1993-036AAT",
        "meta_epoch": "2025-12-05T20:37:53.398848",
        "meta_mean_motion": 14.24594365,
        "meta_eccentricity": 0.01006913,
        "meta_inclination": 74.0548,
        "meta_ra_of_asc_node": 256.0925,
        "meta_arg_of_pericenter": 319.2185,
        "meta_mean_anomaly": 104.4255,
        "meta_ephemeris_type": 0,
        "meta_classification_type": "U",
        "meta_norad_cat_id": 34790,
        "meta_element_set_no": 999,
        "meta_rev_at_epoch": 86475,
        "meta_bstar": 0.0016022683,
        "meta_mean_motion_dot": 3.898e-05,
        "meta_mean_motion_ddot": 0,
        "tle_line1": "1 34790U 93036AAT 25339.85964582  .00003898  00000+0  16023-2 0  9994",
        "tle_line2": "2 34790  74.0548 256.0925 0100691 319.2185 104.4255 14.24594365864752"
      },
      "geometry": {
        "type": "Point",
        "coordinates": [
          173.73452718780618,
          -73.80624174146757
        ]
      }
    },
    {
      "type": "Feature",
      "properties": {
        "norad_id": 34792,
        "name": "COSMOS 2251 DEB",
        "group": "cosmos-2251-debris",
        "lat": -36.21366322325406,
        "lon": 168.04161926476704,
        "alt_km": 706.5495785163139,
        "timestamp": "2025-12-07T05:38:10.298724+00:00",
        "meta_object_name": "COSMOS 2251 DEB",
        "meta_object_id": "1993-036AAV",
        "meta_epoch": "2025-12-06T15:13:43.271040",
        "meta_mean_motion": 14.55881128,
        "meta_eccentricity": 0.00125664,
        "meta_inclination": 74.017,
        "meta_ra_of_asc_node": 181.2954,
        "meta_arg_of_pericenter": 274.9097,
        "meta_mean_anomaly": 142.0934,
        "meta_ephemeris_type": 0,
        "meta_classification_type": "U",
        "meta_norad_cat_id": 34792,
        "meta_element_set_no": 999,
        "meta_rev_at_epoch": 87561,
        "meta_bstar": 0.001558711,
        "meta_mean_motion_dot": 6.826e-05,
        "meta_mean_motion_ddot": 0,
        "tle_line1": "1 34792U 93036AAV 25340.63452860  .00006826  00000+0  15587-2 0  9993",
        "tle_line2": "2 34792  74.0170 181.2954 0012566 274.9097 142.0934 14.55881128875617"
      },
      "geometry": {
        "type": "Point",
        "coordinates": [
          168.04161926476704,
          -36.21366322325406
        ]
      }
    },
    {
      "type": "Feature",
      "properties": {
        "norad_id": 34793,
        "name": "COSMOS 2251 DEB",
        "group": "cosmos-2251-debris",
        "lat": 72.58742990803925,
        "lon": -33.297015990495744,
        "alt_km": 723.7937893469161,
        "timestamp": "2025-12-07T05:38:10.298734+00:00",
        "meta_object_name": "COSMOS 2251 DEB",
        "meta_object_id": "1993-036AAW",
        "meta_epoch": "2025-12-06T14:33:29.540160",
        "meta_mean_motion": 14.38628638,
        "meta_eccentricity": 0.00500502,
        "meta_inclination": 74.0029,
        "meta_ra_of_asc_node": 261.6971,
        "meta_arg_of_pericenter": 57.433,
        "meta_mean_anomaly": 12.9376,
        "meta_ephemeris_type": 0,
        "meta_classification_type": "U",
        "meta_norad_cat_id": 34793,
        "meta_element_set_no": 999,
        "meta_rev_at_epoch": 87242,
        "meta_bstar": 0.00050813382,
        "meta_mean_motion_dot": 1.553e-05,
        "meta_mean_motion_ddot": 0,
        "tle_line1": "1 34793U 93036AAW 25340.60659190  .00001553  00000+0  50813-3 0  9990",
        "tle_line2": "2 34793  74.0029 261.6971 0050050  57.4330  12.9376 14.38628638872424"
      },
      "geometry": {
        "type": "Point",
        "coordinates": [
          -33.297015990495744,
          72.58742990803925
        ]
      }
    },
    {
      "type": "Feature",
      "properties": {
        "norad_id": 34796,
        "name": "COSMOS 2251 DEB",
        "group": "cosmos-2251-debris",
        "lat": -20.765861537747348,
        "lon": -139.56723217806248,
        "alt_km": 664.5678621081188,
        "timestamp": "2025-12-07T05:38:10.298745+00:00",
        "meta_object_name": "COSMOS 2251 DEB",
        "meta_object_id": "1993-036AAZ",
        "meta_epoch": "2025-12-04T16:32:19.644000",
        "meta_mean_motion": 14.48622795,
        "meta_eccentricity": 0.0100109,
        "meta_inclination": 74.0308,
        "meta_ra_of_asc_node": 231.4366,
        "meta_arg_of_pericenter": 335.2768,
        "meta_mean_anomaly": 52.2124,
        "meta_ephemeris_type": 0,
        "meta_classification_type": "U",
        "meta_norad_cat_id": 34796,
        "meta_element_set_no": 999,
        "meta_rev_at_epoch": 87911,
        "meta_bstar": 0.0015827,
        "meta_mean_motion_dot": 6.321e-05,
        "meta_mean_motion_ddot": 0,
        "tle_line1": "1 34796U 93036AAZ 25338.68911625  .00006321  00000+0  15827-2 0  9995",
        "tle_line2": "2 34796  74.0308 231.4366 0100109 335.2768  52.2124 14.48622795879113"
      },
      "geometry": {
        "type": "Point",
        "coordinates": [
          -139.56723217806248,
          -20.765861537747348
        ]
      }
    },
    {
      "type": "Feature",
      "properties": {
        "norad_id": 34797,
        "name": "COSMOS 2251 DEB",
        "group": "cosmos-2251-debris",
        "lat": -36.88133442232112,
        "lon": -57.310173199920655,
        "alt_km": 704.3839398410782,
        "timestamp": "2025-12-07T05:38:10.298755+00:00",
        "meta_object_name": "COSMOS 2251 DEB",
        "meta_object_id": "1993-036ABA",
        "meta_epoch": "2025-12-06T15:18:32.741280",
        "meta_mean_motion": 14.42649949,
        "meta_eccentricity": 0.00724054,
        "meta_inclination": 73.9773,
        "meta_ra_of_asc_node": 111.3499,
        "meta_arg_of_pericenter": 225.9765,
        "meta_mean_anomaly": 133.5412,
        "meta_ephemeris_type": 0,
        "meta_classification_type": "U",
        "meta_norad_cat_id": 34797,
        "meta_element_set_no": 999,
        "meta_rev_at_epoch": 87327,
        "meta_bstar": 0.0039721456,
        "meta_mean_motion_dot": 0.00013628,
        "meta_mean_motion_ddot": 0,
        "tle_line1": "1 34797U 93036ABA 25340.63787895  .00013628  00000+0  39721-2 0  9991",
        "tle_line2": "2 34797  73.9773 111.3499 0072405 225.9765 133.5412 14.42649949873278"
      },
      "geometry": {
        "type": "Point",
        "coordinates": [
          -57.310173199920655,
          -36.88133442232112
        ]
      }
    }
  ]
}